[{"OBJECT_NAME":"OBJECT A","OBJECT_ID":"2023-069A","EPOCH":"2026-03-09T23:23:38.832000","MEAN_MOTION":15.439714,"ECCENTRICITY":0.00293771,"INCLINATION":40.9954,"RA_OF_ASC_NODE":47.9643,"ARG_OF_PERICENTER":310.3432,"MEAN_ANOMALY":49.4829,"EPHEMERIS_TYPE":0,"CLASSIFICATION_TYPE":"U","NORAD_CAT_ID":56731,"ELEMENT_SET_NO":999,"REV_AT_EPOCH":15774,"BSTAR":0.00033298107,"MEAN_MOTION_DOT":0.00015557,"MEAN_MOTION_DDOT":0},{"OBJECT_NAME":"STARLINK-36502","OBJECT_ID":"2026-020L","EPOCH":"2026-03-09T22:00:01.999584","MEAN_MOTION":15.50676514,"ECCENTRICITY":0.00012899,"INCLINATION":42.9999,"RA_OF_ASC_NODE":140.9073,"ARG_OF_PERICENTER":271.5511,"MEAN_ANOMALY":340.6393,"EPHEMERIS_TYPE":0,"CLASSIFICATION_TYPE":"U","NORAD_CAT_ID":67627,"ELEMENT_SET_NO":999,"REV_AT_EPOCH":603,"BSTAR":-0.0038075571,"MEAN_MOTION_DOT":-0.00218353,"MEAN_MOTION_DDOT":0}]
